SL-8 R/B                
1 15483U 85006B   26177.95547463  .00000163  00000+0  62739-4 0  9996
2 15483  74.0460  60.0890 0019079 305.7091  65.4933 14.37838670169731
SL-12 R/B(2)            
1 15772U 85042D   26177.89152145  .00000127  00000+0  78442-4 0  9997
2 15772  71.1065 217.0136 0036817 313.2117 219.5179 14.22007511129916
SL-14 R/B               
1 15945U 85069B   26177.79496705  .00000410  00000+0  43433-4 0  9997
2 15945  82.5274 282.3302 0018584 186.2027 173.8963 14.86522433189043
SL-16 R/B               
1 16182U 85097B   26177.73982108  .00000206  00000+0  12732-3 0  9993
2 16182  71.0034 270.9667 0005347  90.5779  22.5746 14.16613333102671
SL-14 R/B               
1 16496U 86006B   26177.87636528  .00000512  00000+0  51735-4 0  9996
2 16496  82.5267 156.9950 0074682 270.7002  88.5658 14.86954121165438
COSMOS 1743             
1 16719U 86034A   26177.85111074  .00051759  00000+0  46898-3 0  9999
2 16719  82.5273 318.4508 0004594 235.0559 125.0271 15.67826984197307
SL-14 R/B               
1 16792U 86046B   26177.91881543  .00000427  00000+0  46293-4 0  9991
2 16792  82.4821 336.9786 0021995 224.2726 135.6731 14.85677522142623
SL-14 R/B               
1 16882U 86055B   26177.98792522  .00000378  00000+0  40731-4 0  9992
2 16882  82.5199  23.9176 0018165 334.9212 138.8158 14.85729131135592
AJISAI (EGS)            
1 16908U 86061A   26177.92725718 -.00000112  00000+0 -10394-3 0  9994
2 16908  50.0083 117.4441 0011162 205.2906 198.8276 12.44516763481608
SL-14 R/B               
1 17567U 87024B   26177.91252620  .00000404  00000+0  43133-4 0  9992
2 17567  82.5282 350.1081 0016712 258.0380 101.8963 14.86219365104352
COSMOS 1833             
1 17589U 87027A   26177.94804198  .00000279  00000+0  17462-3 0  9990
2 17589  70.9202  96.3524 0023146  38.7854 321.4923 14.13057363 25758
SL-16 R/B               
1 17590U 87027B   26177.95674067  .00000252  00000+0  14856-3 0  9998
2 17590  71.0033  46.2418 0006741 301.8129  58.2338 14.17172711 30829
SL-14 R/B               
1 17912U 87038B   26177.96370067  .00000349  00000+0  37533-4 0  9997
2 17912  82.5003 193.8632 0019774 159.0838 201.1192 14.85450491 95454
COSMOS 1844             
1 17973U 87041A   26177.93635611  .00000203  00000+0  13030-3 0  9998
2 17973  70.8968 163.7425 0032373 221.2111 138.6566 14.14568707 19034
SL-14 R/B               
1 18153U 87055B   26177.92139480  .00000345  00000+0  36848-4 0  9996
2 18153  82.4987 246.0532 0020961  16.7278 343.4624 14.85716818 86154
COSMOS 1867             
1 18187U 87060A   26177.91375373 -.00000037  00000+0  23883-4 0  9995
2 18187  65.0115   0.8181 0016731 282.1188  77.8022 14.31516777 35579
SL-14 R/B               
1 18749U 88001B   26177.85673822  .00000371  00000+0  40001-4 0  9999
2 18749  82.5135  92.6772 0016691 234.6343 125.3314 14.85615830 58234
COSMOS 1933             
1 18958U 88020A   26177.92042850  .00004390  00000+0  20976-3 0  9994
2 18958  82.5123 142.7961 0004609 153.7320 206.4149 15.18772889 66806
SL-3 R/B                
1 19046U 88032B   26177.91482385  .00004300  00000+0  19618-3 0  9998
2 19046  97.5254 160.9458 0024574 209.1525 150.8340 15.20906979 68703
SL-16 R/B               
1 19120U 88039B   26177.49231853 -.00000123  00000+0 -35563-4 0  9992
2 19120  71.0128 198.4822 0021703 179.0888 181.0280 14.19630807973820
COSMOS 1953             
1 19210U 88050A   26177.89415584  .00007889  00000+0  26908-3 0  9990
2 19210  82.5079  48.2454 0012456  96.8346 263.4312 15.30105653 54477
SL-8 R/B                
1 19257U 88053B   26177.74970144  .00000150  00000+0  57020-4 0  9990
2 19257  74.0479 271.4306 0019236  63.2331  54.8686 14.38970763992284
COSMOS 1975             
1 19573U 88093A   26177.96854611  .00007168  00000+0  24945-3 0  9994
2 19573  82.5186   7.8617 0012153 139.3638 220.8512 15.29447643 36106
SL-14 R/B               
1 19574U 88093B   26177.84650395  .00000406  00000+0  43729-4 0  9995
2 19574  82.5317 299.5762 0021597  40.3294  76.3371 14.85748593 17223
SL-16 R/B               
1 19650U 88102B   26177.68216494  .00000258  00000+0  15424-3 0  9996
2 19650  71.0003 282.1603 0015273 211.9653 148.0546 14.16166809942321
INTERCOSMOS 24          
1 20261U 89080A   26177.94407356  .00000719  00000+0  20448-3 0  9994
2 20261  82.6055  33.2961 1188110  39.2888 328.8591 12.59675354680558
SL-14 R/B               
1 20262U 89080C   26177.84205327  .00000146  00000+0  44023-4 0  9998
2 20262  82.5942 103.1051 1228414 295.3022  52.5814 12.50574392673795
DELTA 1 R/B             
1 20323U 89089B   26177.94445995  .00000319  00000+0  87183-4 0  9999
2 20323  97.0634   7.9413 0070028 136.4664 224.2091 14.50737109911572
ARIANE 40 R/B           
1 20443U 90005H   26177.91202149  .00000227  00000+0  85687-4 0  9996
2 20443  98.2955 235.2257 0009113 231.2309 128.8066 14.39932067908522
DELTA 2 R/B(1)          
1 20453U 90008B   26177.98570713  .00084532  00000+0  58582-3 0  9996
2 20453  35.5990 170.0351 0064423 207.3523 152.3819 15.70332940943240
