OBJECT_NAME,OBJECT_ID,EPOCH,MEAN_MOTION,ECCENTRICITY,INCLINATION,RA_OF_ASC_NODE,ARG_OF_PERICENTER,MEAN_ANOMALY,EPHEMERIS_TYPE,CLASSIFICATION_TYPE,NORAD_CAT_ID,ELEMENT_SET_NO,REV_AT_EPOCH,BSTAR,MEAN_MOTION_DOT,MEAN_MOTION_DDOT
SL-8 R/B,1985-006B,2026-06-26T22:55:53.008032,14.37838670,.00190792,74.0460,60.0890,305.7091,65.4933,0,U,15483,999,16973,.62739492E-4,.163E-5,0
SL-12 R/B(2),1985-042D,2026-06-26T21:23:47.453280,14.22007511,.00368172,71.1065,217.0136,313.2117,219.5179,0,U,15772,999,12991,.78441543E-4,.127E-5,0
SL-14 R/B,1985-069B,2026-06-26T19:04:45.153120,14.86522433,.00185841,82.5274,282.3302,186.2027,173.8963,0,U,15945,999,18904,.43433331E-4,.41E-5,0
SL-16 R/B,1985-097B,2026-06-26T17:45:20.541312,14.16613333,.00053477,71.0034,270.9667,90.5779,22.5746,0,U,16182,999,10267,.12731922E-3,.206E-5,0
SL-14 R/B,1986-006B,2026-06-26T21:01:57.960192,14.86954121,.00746824,82.5267,156.9950,270.7002,88.5658,0,U,16496,999,16543,.51734734E-4,.512E-5,0
COSMOS 1743,1986-034A,2026-06-26T20:25:35.967936,15.67826984,.00045948,82.5273,318.4508,235.0559,125.0271,0,U,16719,999,19730,.46898235E-3,.51759E-3,0
SL-14 R/B,1986-046B,2026-06-26T22:03:05.653152,14.85677522,.00219958,82.4821,336.9786,224.2726,135.6731,0,U,16792,999,14262,.46293329E-4,.427E-5,0
SL-14 R/B,1986-055B,2026-06-26T23:42:36.739008,14.85729131,.00181659,82.5199,23.9176,334.9212,138.8158,0,U,16882,999,13559,.40730693E-4,.378E-5,0
AJISAI (EGS),1986-061A,2026-06-26T22:15:15.020352,12.44516763,.00111627,50.0083,117.4441,205.2906,198.8276,0,U,16908,999,48160,-.1039377E-3,-.112E-5,0
SL-14 R/B,1987-024B,2026-06-26T21:54:02.263680,14.86219365,.00167123,82.5282,350.1081,258.0380,101.8963,0,U,17567,999,10435,.43133447E-4,.404E-5,0
COSMOS 1833,1987-027A,2026-06-26T22:45:10.827072,14.13057363,.00231466,70.9202,96.3524,38.7854,321.4923,0,U,17589,999,2575,.17461835E-3,.279E-5,0
SL-16 R/B,1987-027B,2026-06-26T22:57:42.393888,14.17172711,.00067414,71.0033,46.2418,301.8129,58.2338,0,U,17590,999,3082,.14855942E-3,.252E-5,0
SL-14 R/B,1987-038B,2026-06-26T23:07:43.737888,14.85450491,.00197741,82.5003,193.8632,159.0838,201.1192,0,U,17912,999,9545,.37533058E-4,.349E-5,0
COSMOS 1844,1987-041A,2026-06-26T22:28:21.167904,14.14568707,.00323738,70.8968,163.7425,221.2111,138.6566,0,U,17973,999,1903,.13029513E-3,.203E-5,0
SL-14 R/B,1987-055B,2026-06-26T22:06:48.510720,14.85716818,.00209615,82.4987,246.0532,16.7278,343.4624,0,U,18153,999,8615,.36848159E-4,.345E-5,0
COSMOS 1867,1987-060A,2026-06-26T21:55:48.322272,14.31516777,.00167316,65.0115,0.8181,282.1188,77.8022,0,U,18187,999,3557,.23883453E-4,-.37E-6,0
SL-14 R/B,1988-001B,2026-06-26T20:33:42.182208,14.85615830,.00166912,82.5135,92.6772,234.6343,125.3314,0,U,18749,999,5823,.40001282E-4,.371E-5,0
COSMOS 1933,1988-020A,2026-06-26T22:05:25.022400,15.18772889,.00046094,82.5123,142.7961,153.7320,206.4149,0,U,18958,999,6680,.20976135E-3,.439E-4,0
SL-3 R/B,1988-032B,2026-06-26T21:57:20.780640,15.20906979,.00245746,97.5254,160.9458,209.1525,150.8340,0,U,19046,999,6870,.19618211E-3,.43E-4,0
SL-16 R/B,1988-039B,2026-06-26T11:48:56.320992,14.19630807,.0021703,71.0128,198.4822,179.0888,181.0280,0,U,19120,999,97382,-.35563E-4,-.123E-5,0
COSMOS 1953,1988-050A,2026-06-26T21:27:35.064576,15.30105653,.00124563,82.5079,48.2454,96.8346,263.4312,0,U,19210,999,5447,.2690758E-3,.7889E-4,0
SL-8 R/B,1988-053B,2026-06-26T17:59:34.204416,14.38970763,.00192363,74.0479,271.4306,63.2331,54.8686,0,U,19257,999,99228,.57020207E-4,.15E-5,0
COSMOS 1975,1988-093A,2026-06-26T23:14:42.383904,15.29447643,.00121539,82.5186,7.8617,139.3638,220.8512,0,U,19573,999,3610,.24945338E-3,.7168E-4,0
SL-14 R/B,1988-093B,2026-06-26T20:18:57.941280,14.85748593,.00215978,82.5317,299.5762,40.3294,76.3371,0,U,19574,999,1722,.43729139E-4,.406E-5,0
SL-16 R/B,1988-102B,2026-06-26T16:22:19.050816,14.16166809,.00152736,71.0003,282.1603,211.9653,148.0546,0,U,19650,999,94232,.15423789E-3,.258E-5,0
INTERCOSMOS 24,1989-080A,2026-06-26T22:39:27.955584,12.59675354,.11881103,82.6055,33.2961,39.2888,328.8591,0,U,20261,999,68055,.20448062E-3,.719E-5,0
SL-14 R/B,1989-080C,2026-06-26T20:12:33.402528,12.50574392,.12284149,82.5942,103.1051,295.3022,52.5814,0,U,20262,999,67379,.44022751E-4,.146E-5,0
DELTA 1 R/B,1989-089B,2026-06-26T22:40:01.339680,14.50737109,.00700282,97.0634,7.9413,136.4664,224.2091,0,U,20323,999,91157,.87183108E-4,.319E-5,0
ARIANE 40 R/B,1990-005H,2026-06-26T21:53:18.656736,14.39932067,.00091136,98.2955,235.2257,231.2309,128.8066,0,U,20443,999,90852,.85686886E-4,.227E-5,0
DELTA 2 R/B(1),1990-008B,2026-06-26T23:39:25.096032,15.70332940,.00644234,35.5990,170.0351,207.3523,152.3819,0,U,20453,999,94324,.58582236E-3,.84532E-3,0
